{"type":"FeatureCollection","features":[{"type":"Feature","properties":{"id":"131205856","comuna":"Nunoa","cut":13120,"region":"Metropolitana De Santiago","nse":"D","hog":1599,"score":2.24,"percentil":0.266},"geometry":{"type":"Polygon","coordinates":[[[-70.62179,-33.46863],[-70.6171,-33.46839],[-70.61662,-33.47079],[-70.62152,-33.47105],[-70.62179,-33.46863]]]}},{"type":"Feature","properties":{"id":"131205855","comuna":"Nunoa","cut":13120,"region":"Metropolitana De Santiago","nse":"D","hog":948,"score":2.36,"percentil":0.384},"geometry":{"type":"Polygon","coordinates":[[[-70.61662,-33.47079],[-70.61717,-33.46812],[-70.61392,-33.46768],[-70.61362,-33.47062],[-70.61662,-33.47079]]]}},{"type":"Feature","properties":{"id":"131205854","comuna":"Nunoa","cut":13120,"region":"Metropolitana De Santiago","nse":"C3","hog":1362,"score":2.68,"percentil":0.628},"geometry":{"type":"Polygon","coordinates":[[[-70.6171,-33.46839],[-70.62179,-33.46863],[-70.62203,-33.4665],[-70.61483,-33.4656],[-70.61392,-33.46768],[-70.6171,-33.46839]]]}},{"type":"Feature","properties":{"id":"131205858","comuna":"Nunoa","cut":13120,"region":"Metropolitana De Santiago","nse":"C3","hog":1380,"score":2.91,"percentil":0.748},"geometry":{"type":"Polygon","coordinates":[[[-70.58866,-33.4735],[-70.58868,-33.474],[-70.59639,-33.4736],[-70.59651,-33.47105],[-70.59258,-33.46899],[-70.58866,-33.4735]]]}},{"type":"Feature","properties":{"id":"131205829","comuna":"Nunoa","cut":13120,"region":"Metropolitana De Santiago","nse":"C2","hog":2888,"score":2.96,"percentil":0.774},"geometry":{"type":"Polygon","coordinates":[[[-70.58341,-33.47318],[-70.58875,-33.47378],[-70.58832,-33.47325],[-70.58738,-33.47321],[-70.5856,-33.46588],[-70.57649,-33.46915],[-70.57757,-33.47016],[-70.58341,-33.47318]]]}},{"type":"Feature","properties":{"id":"131205852","comuna":"Nunoa","cut":13120,"region":"Metropolitana De Santiago","nse":"C2","hog":1829,"score":2.98,"percentil":0.78},"geometry":{"type":"Polygon","coordinates":[[[-70.59853,-33.46909],[-70.59862,-33.47096],[-70.60649,-33.47128],[-70.60663,-33.46867],[-70.59853,-33.46909]]]}},{"type":"Feature","properties":{"id":"131205831","comuna":"Nunoa","cut":13120,"region":"Metropolitana De Santiago","nse":"C2","hog":1449,"score":3.12,"percentil":0.835},"geometry":{"type":"Polygon","coordinates":[[[-70.60649,-33.47128],[-70.61003,-33.47142],[-70.60988,-33.47428],[-70.62293,-33.47494],[-70.62365,-33.47208],[-70.62152,-33.47105],[-70.60656,-33.47023],[-70.60649,-33.47128]]]}},{"type":"Feature","properties":{"id":"131205859","comuna":"Nunoa","cut":13120,"region":"Metropolitana De Santiago","nse":"C2","hog":1903,"score":3.15,"percentil":0.843},"geometry":{"type":"Polygon","coordinates":[[[-70.5943,-33.46475],[-70.58828,-33.46551],[-70.58979,-33.4708],[-70.58962,-33.47133],[-70.58834,-33.47155],[-70.5886,-33.47245],[-70.58724,-33.47271],[-70.58738,-33.47321],[-70.58866,-33.4735],[-70.5943,-33.467],[-70.5943,-33.46475]]]}},{"type":"Feature","properties":{"id":"131205860","comuna":"Nunoa","cut":13120,"region":"Metropolitana De Santiago","nse":"C2","hog":1003,"score":3.22,"percentil":0.868},"geometry":{"type":"Polygon","coordinates":[[[-70.5856,-33.46588],[-70.58724,-33.47271],[-70.58856,-33.47251],[-70.58834,-33.47155],[-70.58962,-33.47133],[-70.58979,-33.4708],[-70.58828,-33.46551],[-70.5856,-33.46588]]]}},{"type":"Feature","properties":{"id":"131205839","comuna":"Nunoa","cut":13120,"region":"Metropolitana De Santiago","nse":"C1b","hog":2902,"score":3.27,"percentil":0.878},"geometry":{"type":"Polygon","coordinates":[[[-70.58447,-33.45995],[-70.57397,-33.46239],[-70.57653,-33.46914],[-70.5856,-33.46588],[-70.58447,-33.45995]]]}},{"type":"Feature","properties":{"id":"131235981","comuna":"Providencia","cut":13123,"region":"Metropolitana De Santiago","nse":"C1b","hog":2463,"score":3.45,"percentil":0.914},"geometry":{"type":"Polygon","coordinates":[[[-70.6277,-33.44058],[-70.62537,-33.44858],[-70.63153,-33.44984],[-70.63389,-33.44187],[-70.6277,-33.44058]]]}},{"type":"Feature","properties":{"id":"131205847","comuna":"Nunoa","cut":13120,"region":"Metropolitana De Santiago","nse":"C1b","hog":3335,"score":3.47,"percentil":0.916},"geometry":{"type":"Polygon","coordinates":[[[-70.61492,-33.46157],[-70.61483,-33.4656],[-70.62203,-33.4665],[-70.62337,-33.461],[-70.62193,-33.46109],[-70.62103,-33.46055],[-70.62087,-33.46113],[-70.61492,-33.46157]]]}},{"type":"Feature","properties":{"id":"131205837","comuna":"Nunoa","cut":13120,"region":"Metropolitana De Santiago","nse":"C1b","hog":1124,"score":3.55,"percentil":0.926},"geometry":{"type":"Polygon","coordinates":[[[-70.57566,-33.44236],[-70.579,-33.44232],[-70.58718,-33.43941],[-70.58537,-33.43737],[-70.58101,-33.44002],[-70.57625,-33.44029],[-70.57566,-33.44236]]]}},{"type":"Feature","properties":{"id":"131205848","comuna":"Nunoa","cut":13120,"region":"Metropolitana De Santiago","nse":"C1b","hog":901,"score":3.59,"percentil":0.93},"geometry":{"type":"Polygon","coordinates":[[[-70.60568,-33.45887],[-70.60677,-33.46577],[-70.60654,-33.47023],[-70.61362,-33.47062],[-70.61392,-33.46768],[-70.61483,-33.4656],[-70.61491,-33.46135],[-70.61687,-33.4578],[-70.60568,-33.45887]]]}},{"type":"Feature","properties":{"id":"131205830","comuna":"Nunoa","cut":13120,"region":"Metropolitana De Santiago","nse":"C1a","hog":1491,"score":3.64,"percentil":0.933},"geometry":{"type":"Polygon","coordinates":[[[-70.5983,-33.46461],[-70.59853,-33.46909],[-70.60663,-33.46867],[-70.60677,-33.46577],[-70.60623,-33.46227],[-70.60091,-33.46451],[-70.5983,-33.46461]]]}},{"type":"Feature","properties":{"id":"131235989","comuna":"Providencia","cut":13123,"region":"Metropolitana De Santiago","nse":"C1a","hog":1338,"score":3.67,"percentil":0.934},"geometry":{"type":"Polygon","coordinates":[[[-70.63223,-33.42192],[-70.62239,-33.42476],[-70.62459,-33.42974],[-70.6273,-33.43279],[-70.63307,-33.43589],[-70.63537,-33.43606],[-70.63625,-33.43065],[-70.63277,-33.42492],[-70.63223,-33.42192]]]}},{"type":"Feature","properties":{"id":"131235976","comuna":"Providencia","cut":13123,"region":"Metropolitana De Santiago","nse":"C1a","hog":3547,"score":3.7,"percentil":0.939},"geometry":{"type":"Polygon","coordinates":[[[-70.6158,-33.43825],[-70.61373,-33.44756],[-70.61844,-33.44838],[-70.61876,-33.44727],[-70.62537,-33.44858],[-70.62774,-33.44042],[-70.6158,-33.43825]]]}},{"type":"Feature","properties":{"id":"131205840","comuna":"Nunoa","cut":13120,"region":"Metropolitana De Santiago","nse":"C1a","hog":1567,"score":3.72,"percentil":0.941},"geometry":{"type":"Polygon","coordinates":[[[-70.58,-33.45445],[-70.58046,-33.45894],[-70.57927,-33.45915],[-70.57971,-33.461],[-70.58447,-33.45995],[-70.58336,-33.45483],[-70.58,-33.45445]]]}},{"type":"Feature","properties":{"id":"131235990","comuna":"Providencia","cut":13123,"region":"Metropolitana De Santiago","nse":"C1a","hog":2116,"score":3.8,"percentil":0.951},"geometry":{"type":"Polygon","coordinates":[[[-70.62851,-33.43491],[-70.62727,-33.44034],[-70.63389,-33.44187],[-70.63537,-33.43606],[-70.63307,-33.43589],[-70.62914,-33.43399],[-70.62851,-33.43491]]]}},{"type":"Feature","properties":{"id":"131205851","comuna":"Nunoa","cut":13120,"region":"Metropolitana De Santiago","nse":"C1a","hog":2880,"score":3.88,"percentil":0.957},"geometry":{"type":"Polygon","coordinates":[[[-70.59801,-33.4591],[-70.5983,-33.46461],[-70.60091,-33.46451],[-70.60623,-33.46227],[-70.60597,-33.46058],[-70.60154,-33.45929],[-70.60119,-33.45871],[-70.59801,-33.4591]]]}},{"type":"Feature","properties":{"id":"131205853","comuna":"Nunoa","cut":13120,"region":"Metropolitana De Santiago","nse":"C1a","hog":1789,"score":3.9,"percentil":0.959},"geometry":{"type":"Polygon","coordinates":[[[-70.61003,-33.47142],[-70.59651,-33.47105],[-70.59655,-33.47353],[-70.60988,-33.47428],[-70.61003,-33.47142]]]}},{"type":"Feature","properties":{"id":"131235980","comuna":"Providencia","cut":13123,"region":"Metropolitana De Santiago","nse":"C1a","hog":2239,"score":3.97,"percentil":0.964},"geometry":{"type":"Polygon","coordinates":[[[-70.58211,-33.43354],[-70.58718,-33.43941],[-70.59281,-33.44776],[-70.5979,-33.44485],[-70.59915,-33.44493],[-70.59965,-33.44156],[-70.59494,-33.44074],[-70.58817,-33.43555],[-70.58842,-33.43507],[-70.58473,-33.43186],[-70.58406,-33.43176],[-70.58211,-33.43354]]]}},{"type":"Feature","properties":{"id":"131205836","comuna":"Nunoa","cut":13120,"region":"Metropolitana De Santiago","nse":"C1a","hog":2584,"score":4.02,"percentil":0.967},"geometry":{"type":"Polygon","coordinates":[[[-70.57171,-33.44804],[-70.58081,-33.44831],[-70.58158,-33.44165],[-70.57796,-33.44257],[-70.57286,-33.44147],[-70.57171,-33.44804]]]}},{"type":"Feature","properties":{"id":"131205835","comuna":"Nunoa","cut":13120,"region":"Metropolitana De Santiago","nse":"C1a","hog":1344,"score":4.03,"percentil":0.968},"geometry":{"type":"Polygon","coordinates":[[[-70.58158,-33.44165],[-70.58081,-33.44831],[-70.59154,-33.4485],[-70.59281,-33.44776],[-70.58718,-33.43941],[-70.58158,-33.44165]]]}},{"type":"Feature","properties":{"id":"131205832","comuna":"Nunoa","cut":13120,"region":"Metropolitana De Santiago","nse":"C1a","hog":2833,"score":4.04,"percentil":0.972},"geometry":{"type":"Polygon","coordinates":[[[-70.62749,-33.45526],[-70.6256,-33.46125],[-70.62513,-33.46165],[-70.62502,-33.46088],[-70.62337,-33.461],[-70.62203,-33.4665],[-70.62152,-33.47105],[-70.62365,-33.47208],[-70.62403,-33.47034],[-70.62597,-33.46869],[-70.62982,-33.45556],[-70.62749,-33.45526]]]}},{"type":"Feature","properties":{"id":"131205828","comuna":"Nunoa","cut":13120,"region":"Metropolitana De Santiago","nse":"C1a","hog":1465,"score":4.04,"percentil":0.973},"geometry":{"type":"Polygon","coordinates":[[[-70.58336,-33.45483],[-70.5856,-33.46588],[-70.59107,-33.46514],[-70.59021,-33.4594],[-70.58896,-33.45946],[-70.58839,-33.45547],[-70.58336,-33.45483]]]}},{"type":"Feature","properties":{"id":"131235991","comuna":"Providencia","cut":13123,"region":"Metropolitana De Santiago","nse":"C1a","hog":2774,"score":4.07,"percentil":0.974},"geometry":{"type":"Polygon","coordinates":[[[-70.61737,-33.43325],[-70.6158,-33.43825],[-70.62727,-33.44034],[-70.62842,-33.43513],[-70.62914,-33.43399],[-70.62614,-33.43168],[-70.62588,-33.43189],[-70.6245,-33.43017],[-70.62367,-33.431],[-70.62034,-33.42885],[-70.61737,-33.43325]]]}},{"type":"Feature","properties":{"id":"131235987","comuna":"Providencia","cut":13123,"region":"Metropolitana De Santiago","nse":"C1a","hog":2972,"score":4.08,"percentil":0.975},"geometry":{"type":"Polygon","coordinates":[[[-70.60951,-33.43144],[-70.61737,-33.43325],[-70.62034,-33.42885],[-70.61642,-33.42703],[-70.61249,-33.42358],[-70.60951,-33.43144]]]}},{"type":"Feature","properties":{"id":"131235982","comuna":"Providencia","cut":13123,"region":"Metropolitana De Santiago","nse":"C1a","hog":491,"score":4.1,"percentil":0.977},"geometry":{"type":"Polygon","coordinates":[[[-70.61385,-33.40917],[-70.60578,-33.4093],[-70.60802,-33.416],[-70.61048,-33.41867],[-70.6137,-33.42085],[-70.62032,-33.42302],[-70.62239,-33.42476],[-70.63223,-33.42192],[-70.63008,-33.42036],[-70.62449,-33.41778],[-70.62357,-33.41648],[-70.62122,-33.41484],[-70.62032,-33.41254],[-70.61935,-33.41168],[-70.61737,-33.41175],[-70.61385,-33.40917]]]}},{"type":"Feature","properties":{"id":"131205857","comuna":"Nunoa","cut":13120,"region":"Metropolitana De Santiago","nse":"C1a","hog":842,"score":4.12,"percentil":0.977},"geometry":{"type":"Polygon","coordinates":[[[-70.5943,-33.46475],[-70.5943,-33.467],[-70.59258,-33.46899],[-70.59598,-33.47106],[-70.59862,-33.47096],[-70.5983,-33.46461],[-70.5943,-33.46475]]]}},{"type":"Feature","properties":{"id":"131205825","comuna":"Nunoa","cut":13120,"region":"Metropolitana De Santiago","nse":"C1a","hog":2144,"score":4.13,"percentil":0.977},"geometry":{"type":"Polygon","coordinates":[[[-70.5738,-33.4374],[-70.57286,-33.44147],[-70.57566,-33.44236],[-70.57625,-33.44029],[-70.58101,-33.44002],[-70.58537,-33.43737],[-70.58211,-33.43354],[-70.57799,-33.4358],[-70.5738,-33.4374]]]}},{"type":"Feature","properties":{"id":"131205845","comuna":"Nunoa","cut":13120,"region":"Metropolitana De Santiago","nse":"C1a","hog":2818,"score":4.15,"percentil":0.978},"geometry":{"type":"Polygon","coordinates":[[[-70.62214,-33.45361],[-70.61779,-33.453],[-70.6181,-33.45564],[-70.61687,-33.4578],[-70.62414,-33.45707],[-70.62688,-33.45732],[-70.62749,-33.45526],[-70.62982,-33.45556],[-70.63089,-33.45199],[-70.62883,-33.45249],[-70.62551,-33.45231],[-70.62214,-33.45361]]]}},{"type":"Feature","properties":{"id":"131205846","comuna":"Nunoa","cut":13120,"region":"Metropolitana De Santiago","nse":"C1a","hog":1927,"score":4.18,"percentil":0.978},"geometry":{"type":"Polygon","coordinates":[[[-70.61687,-33.4578],[-70.61492,-33.46157],[-70.62087,-33.46113],[-70.62103,-33.46055],[-70.62193,-33.46109],[-70.62502,-33.46088],[-70.62513,-33.46165],[-70.62574,-33.46102],[-70.62688,-33.45732],[-70.62414,-33.45707],[-70.61687,-33.4578]]]}},{"type":"Feature","properties":{"id":"131205842","comuna":"Nunoa","cut":13120,"region":"Metropolitana De Santiago","nse":"C1a","hog":2427,"score":4.19,"percentil":0.979},"geometry":{"type":"Polygon","coordinates":[[[-70.59764,-33.45488],[-70.58839,-33.45547],[-70.58896,-33.45946],[-70.59801,-33.4591],[-70.59764,-33.45488]]]}},{"type":"Feature","properties":{"id":"131205843","comuna":"Nunoa","cut":13120,"region":"Metropolitana De Santiago","nse":"C1a","hog":1598,"score":4.22,"percentil":0.98},"geometry":{"type":"Polygon","coordinates":[[[-70.59107,-33.46514],[-70.5983,-33.46461],[-70.59801,-33.4591],[-70.59021,-33.4594],[-70.59107,-33.46514]]]}},{"type":"Feature","properties":{"id":"131235983","comuna":"Providencia","cut":13123,"region":"Metropolitana De Santiago","nse":"C1a","hog":631,"score":4.22,"percentil":0.98},"geometry":{"type":"Polygon","coordinates":[[[-70.60805,-33.41605],[-70.60144,-33.4182],[-70.60809,-33.42076],[-70.61149,-33.4228],[-70.61472,-33.42563],[-70.61853,-33.42234],[-70.61338,-33.42069],[-70.61017,-33.4184],[-70.60805,-33.41605]]]}},{"type":"Feature","properties":{"id":"131205827","comuna":"Nunoa","cut":13120,"region":"Metropolitana De Santiago","nse":"C1a","hog":2967,"score":4.25,"percentil":0.981},"geometry":{"type":"Polygon","coordinates":[[[-70.57439,-33.45328],[-70.5709,-33.45342],[-70.57212,-33.45821],[-70.57397,-33.46239],[-70.57971,-33.461],[-70.57927,-33.45915],[-70.58046,-33.45894],[-70.58,-33.45445],[-70.57628,-33.45421],[-70.57439,-33.45328]]]}},{"type":"Feature","properties":{"id":"131205838","comuna":"Nunoa","cut":13120,"region":"Metropolitana De Santiago","nse":"C1a","hog":3032,"score":4.27,"percentil":0.982},"geometry":{"type":"Polygon","coordinates":[[[-70.58739,-33.45548],[-70.59192,-33.45527],[-70.59139,-33.4485],[-70.58081,-33.44831],[-70.58,-33.45445],[-70.58739,-33.45548]]]}},{"type":"Feature","properties":{"id":"131235977","comuna":"Providencia","cut":13123,"region":"Metropolitana De Santiago","nse":"C1a","hog":4015,"score":4.29,"percentil":0.983},"geometry":{"type":"Polygon","coordinates":[[[-70.60617,-33.44542],[-70.61386,-33.44683],[-70.61652,-33.43509],[-70.61737,-33.43325],[-70.60951,-33.43144],[-70.60749,-33.4381],[-70.60617,-33.44542]]]}},{"type":"Feature","properties":{"id":"131205849","comuna":"Nunoa","cut":13120,"region":"Metropolitana De Santiago","nse":"C1a","hog":2769,"score":4.33,"percentil":0.984},"geometry":{"type":"Polygon","coordinates":[[[-70.61373,-33.44756],[-70.61251,-33.45324],[-70.61732,-33.45294],[-70.62061,-33.45341],[-70.62224,-33.44795],[-70.61876,-33.44727],[-70.61844,-33.44838],[-70.61373,-33.44756]]]}},{"type":"Feature","properties":{"id":"131205841","comuna":"Nunoa","cut":13120,"region":"Metropolitana De Santiago","nse":"C1a","hog":4122,"score":4.34,"percentil":0.984},"geometry":{"type":"Polygon","coordinates":[[[-70.59609,-33.44597],[-70.59741,-33.44775],[-70.59786,-33.44927],[-70.59864,-33.45424],[-70.59836,-33.45481],[-70.6049,-33.4541],[-70.60617,-33.44542],[-70.59919,-33.44465],[-70.5979,-33.44485],[-70.59609,-33.44597]]]}},{"type":"Feature","properties":{"id":"131235988","comuna":"Providencia","cut":13123,"region":"Metropolitana De Santiago","nse":"C1a","hog":1662,"score":4.34,"percentil":0.985},"geometry":{"type":"Polygon","coordinates":[[[-70.61472,-33.42563],[-70.61732,-33.42757],[-70.62084,-33.4291],[-70.62367,-33.431],[-70.6245,-33.43017],[-70.62588,-33.43189],[-70.62614,-33.43168],[-70.6242,-33.4291],[-70.62241,-33.42479],[-70.62032,-33.42302],[-70.61847,-33.42236],[-70.61472,-33.42563]]]}},{"type":"Feature","properties":{"id":"131205826","comuna":"Nunoa","cut":13120,"region":"Metropolitana De Santiago","nse":"C1a","hog":2087,"score":4.34,"percentil":0.985},"geometry":{"type":"Polygon","coordinates":[[[-70.5709,-33.45342],[-70.57439,-33.45328],[-70.57628,-33.45421],[-70.58,-33.45445],[-70.58081,-33.44831],[-70.57171,-33.44804],[-70.5709,-33.45342]]]}},{"type":"Feature","properties":{"id":"131235979","comuna":"Providencia","cut":13123,"region":"Metropolitana De Santiago","nse":"C1a","hog":4629,"score":4.35,"percentil":0.986},"geometry":{"type":"Polygon","coordinates":[[[-70.60277,-33.42998],[-70.59919,-33.44465],[-70.60617,-33.44542],[-70.60749,-33.4381],[-70.60951,-33.43144],[-70.60277,-33.42998]]]}},{"type":"Feature","properties":{"id":"131235986","comuna":"Providencia","cut":13123,"region":"Metropolitana De Santiago","nse":"C1a","hog":1501,"score":4.35,"percentil":0.986},"geometry":{"type":"Polygon","coordinates":[[[-70.58406,-33.43176],[-70.58551,-33.43233],[-70.58842,-33.43507],[-70.58817,-33.43555],[-70.59494,-33.44074],[-70.59965,-33.44156],[-70.60149,-33.43461],[-70.58664,-33.43116],[-70.58532,-33.43044],[-70.58406,-33.43176]]]}},{"type":"Feature","properties":{"id":"131205850","comuna":"Nunoa","cut":13120,"region":"Metropolitana De Santiago","nse":"C1a","hog":2088,"score":4.38,"percentil":0.986},"geometry":{"type":"Polygon","coordinates":[[[-70.6049,-33.4541],[-70.59764,-33.45488],[-70.59801,-33.4591],[-70.60119,-33.45871],[-70.60154,-33.45929],[-70.60597,-33.46058],[-70.6049,-33.4541]]]}},{"type":"Feature","properties":{"id":"131205833","comuna":"Nunoa","cut":13120,"region":"Metropolitana De Santiago","nse":"C1a","hog":3850,"score":4.39,"percentil":0.987},"geometry":{"type":"Polygon","coordinates":[[[-70.61779,-33.453],[-70.6049,-33.4541],[-70.60568,-33.45887],[-70.61687,-33.4578],[-70.6181,-33.45564],[-70.61779,-33.453]]]}},{"type":"Feature","properties":{"id":"131235984","comuna":"Providencia","cut":13123,"region":"Metropolitana De Santiago","nse":"C1a","hog":3012,"score":4.39,"percentil":0.988},"geometry":{"type":"Polygon","coordinates":[[[-70.60586,-33.41991],[-70.60277,-33.42998],[-70.60951,-33.43144],[-70.61249,-33.42358],[-70.60809,-33.42076],[-70.60586,-33.41991]]]}},{"type":"Feature","properties":{"id":"131205834","comuna":"Nunoa","cut":13120,"region":"Metropolitana De Santiago","nse":"C1a","hog":3037,"score":4.41,"percentil":0.989},"geometry":{"type":"Polygon","coordinates":[[[-70.6049,-33.4541],[-70.61251,-33.45324],[-70.61386,-33.44683],[-70.60617,-33.44542],[-70.6049,-33.4541]]]}},{"type":"Feature","properties":{"id":"131235978","comuna":"Providencia","cut":13123,"region":"Metropolitana De Santiago","nse":"AB","hog":3178,"score":4.44,"percentil":0.99},"geometry":{"type":"Polygon","coordinates":[[[-70.59073,-33.42606],[-70.59395,-33.42804],[-70.60277,-33.42998],[-70.60586,-33.41991],[-70.60144,-33.4182],[-70.59073,-33.42606]]]}},{"type":"Feature","properties":{"id":"131205844","comuna":"Nunoa","cut":13120,"region":"Metropolitana De Santiago","nse":"AB","hog":3432,"score":4.46,"percentil":0.99},"geometry":{"type":"Polygon","coordinates":[[[-70.62224,-33.44795],[-70.62061,-33.45341],[-70.62214,-33.45361],[-70.62521,-33.45236],[-70.62883,-33.45249],[-70.63089,-33.45199],[-70.63153,-33.44984],[-70.62224,-33.44795]]]}},{"type":"Feature","properties":{"id":"131205824","comuna":"Nunoa","cut":13120,"region":"Metropolitana De Santiago","nse":"AB","hog":3932,"score":4.5,"percentil":0.992},"geometry":{"type":"Polygon","coordinates":[[[-70.59609,-33.44597],[-70.59139,-33.4485],[-70.59192,-33.45527],[-70.59836,-33.45481],[-70.59864,-33.45424],[-70.59786,-33.44927],[-70.59741,-33.44775],[-70.59609,-33.44597]]]}},{"type":"Feature","properties":{"id":"131235985","comuna":"Providencia","cut":13123,"region":"Metropolitana De Santiago","nse":"AB","hog":2255,"score":4.7,"percentil":0.996},"geometry":{"type":"Polygon","coordinates":[[[-70.58532,-33.43044],[-70.58664,-33.43116],[-70.60149,-33.43461],[-70.60277,-33.42998],[-70.59395,-33.42804],[-70.59073,-33.42606],[-70.58532,-33.43044]]]}}]}